1 26871U 01031A   12076.25422655 -.00000311  00000-0  10000-3 0  5026
2 26871 002.0510 074.0015 0003647 322.0103 170.0803 01.00267546 39060